[{"OBJECT_NAME":"STARLINK-31066","OBJECT_ID":"2023-211K","EPOCH":"2026-03-08T11:10:15.364704","MEAN_MOTION":15.26815036,"ECCENTRICITY":0.00057276,"INCLINATION":43.0016,"RA_OF_ASC_NODE":237.9691,"ARG_OF_PERICENTER":306.2936,"MEAN_ANOMALY":53.7386,"EPHEMERIS_TYPE":0,"CLASSIFICATION_TYPE":"U","NORAD_CAT_ID":58676,"ELEMENT_SET_NO":999,"REV_AT_EPOCH":12184,"BSTAR":0.00037151144,"MEAN_MOTION_DOT":9.744e-5,"MEAN_MOTION_DDOT":0},{"OBJECT_NAME":"CZ-6A DEB","OBJECT_ID":"2022-151ADD","EPOCH":"2026-03-09T18:20:47.462208","MEAN_MOTION":15.20298953,"ECCENTRICITY":0.00285544,"INCLINATION":98.6309,"RA_OF_ASC_NODE":152.6578,"ARG_OF_PERICENTER":173.2603,"MEAN_ANOMALY":186.9019,"EPHEMERIS_TYPE":0,"CLASSIFICATION_TYPE":"U","NORAD_CAT_ID":56285,"ELEMENT_SET_NO":999,"REV_AT_EPOCH":17182,"BSTAR":0.0066325049,"MEAN_MOTION_DOT":0.00148374,"MEAN_MOTION_DDOT":0}]
